0 ARIANE 2 DEB
1 26729U 89006G   13280.59778868  .00000310  00000-0  14408-2 0  4056
2 26729 008.5457 024.3892 7191276 250.5158 089.7759 02.29128966105594
0 ARIANE 2 DEB
1 26729U 89006G   13282.70984203  .00000355  00000-0  15441-2 0  4061
2 26729 008.5475 023.6034 7191390 252.1003 031.9341 02.29130684105640
0 ARIANE 2 DEB
1 26729U 89006G   13285.33407240  .00000356  00000-0  14299-2 0  4076
2 26729 008.5496 022.6284 7191577 254.0666 036.5801 02.29133277105702
0 ARIANE 2 DEB
1 26729U 89006G   13288.68243638  .00000346  00000-0  15484-2 0  4083
2 26729 008.5518 021.3854 7191732 256.5741 278.5713 02.29136632105786
0 ARIANE 2 DEB
1 26729U 89006G   13291.07048473  .00000277  00000-0  15149-2 0  4092
2 26729 008.5530 020.4988 7191944 258.3614 088.4481 02.29138553105832
0 ARIANE 2 DEB
1 26729U 89006G   13294.36700297  .00000375  00000-0  19736-2 0  4103
2 26729 008.5546 019.2746 7192232 260.8317 287.7409 02.29141288105918
